API VERSION: 1.2
API SOURCE: NASA/JPL Horizons API

*******************************************************************************
 Revised: April 22, 2021              Neptune                               899
 
 PHYSICAL DATA (update 2021-May-03):
  Mass x10^24 (kg)      = 102.409         Density (g/cm^3)       =  1.638
  Equat. radius (1 bar) = 24766+-15 km    Volume, 10^10 km^3     = 6254     
  Vol. mean radius (km) = 24624+-21       Polar radius (km)      = 24342+-30
  Geometric Albedo      = 0.41            Flattening             =  0.0171
  Sid. rot. period (III)= 16.11+-0.01 hr  Sid. rot. rate (rad/s) =  0.000108338 
  Mean solar day, h     =~16.11 h         
  GM (km^3/s^2)         = 6835099.97      GM 1-sigma (km^3/s^2)  = +-10 
  Equ. grav, ge (m/s^2) = 11.15           Pol. grav, gp (m/s^2)  = 11.41+-0.03
  Visual magnitude V(1,0)= -6.87
  Vis. mag. (opposition)=  +7.84          Obliquity to orbit     = 28.32 deg
  Sidereal orbit period = 164.788501027 y Sidereal orbit period  = 60189 d
  Mean daily motion     = 0.006020076dg/d Mean orbit velocity    =  5.43 km/s 
  Atmos. temp. (1 bar)  =  72+-2 K        Escape speed (1 bar)  =  23.5 km/s     
  Aroche(ice)/Rp        =  2.98           Hill's sphere rad., Rp = 4700
                                 Perihelion  Aphelion    Mean
  Solar Constant (W/m^2)         1.54        1.49        1.51
  Maximum Planetary IR (W/m^2)   0.52        0.52        0.52
  Minimum Planetary IR (W/m^2)   0.52        0.52        0.52
*******************************************************************************


*******************************************************************************
Ephemeris / API_USER Thu Feb 19 13:07:01 2026 Pasadena, USA      / Horizons
*******************************************************************************
Target body name: Neptune (899)                   {source: nep097_merged}
Center body name: Earth (399)                     {source: nep097_merged}
Center-site name: BODY CENTER
*******************************************************************************
Start time      : A.D. 2025-Jul-19 04:32:00.0000 TDB
Stop  time      : A.D. 2025-Jul-22 04:32:00.0000 TDB
Step-size       : 60 minutes
*******************************************************************************
Center geodetic : 0.0, 0.0, 0.0                   {E-lon(deg),Lat(deg),Alt(km)}
Center cylindric: 0.0, 0.0, 0.0                   {E-lon(deg),Dxy(km),Dz(km)}
Center radii    : 6378.137, 6378.137, 6356.752 km {Equator_a, b, pole_c}
Output units    : AU-D
Calendar mode   : Mixed Julian/Gregorian
Output type     : GEOMETRIC cartesian states
Output format   : 3 (position, velocity, LT, range, range-rate)
EOP file        : eop.260218.p260517
EOP coverage    : DATA-BASED 1962-JAN-20 TO 2026-FEB-18. PREDICTS-> 2026-MAY-16
Reference frame : Ecliptic of J2000.0
*******************************************************************************
JDTDB
   X     Y     Z
   VX    VY    VZ
   LT    RG    RR
*******************************************************************************
$$SOE
2460877.605555556 = A.D. 2025-Jul-21 02:32:00.0000 TDB 
 X = 2.940008201069841E+01 Y = 8.963126015659554E-01 Z =-6.886600185354972E-01
 VX=-1.491024034508769E-02 VY=-4.918925981371085E-03 VZ=-6.374873775705674E-05
 LT= 1.699261585821722E-01 RG= 2.942180230945493E+01 RR=-1.504759220473982E-02
2460877.647222222 = A.D. 2025-Jul-21 03:32:00.0000 TDB 
 X = 2.939946086748042E+01 Y = 8.961074259514894E-01 Z =-6.886626744674064E-01
 VX=-1.490463265758337E-02 VY=-4.929502801209802E-03 VZ=-6.373599387707977E-05
 LT= 1.699225380689970E-01 RG= 2.942117543703111E+01 RR=-1.504228262308549E-02
2460877.688888889 = A.D. 2025-Jul-21 04:32:00.0000 TDB 
 X = 2.939883995809883E+01 Y = 8.959018097250203E-01 Z =-6.886653298686214E-01
 VX=-1.489901619424143E-02 VY=-4.940075361132077E-03 VZ=-6.372327175536707E-05
 LT= 1.699189188346496E-01 RG= 2.942054878602946E+01 RR=-1.503696393610283E-02
2460877.730555556 = A.D. 2025-Jul-21 05:32:00.0000 TDB 
 X = 2.939821928291988E+01 Y = 8.956957530635904E-01 Z =-6.886679847409787E-01
 VX=-1.489339092424345E-02 VY=-4.950643683010674E-03 VZ=-6.371061638452007E-05
 LT= 1.699153008813247E-01 RG= 2.941992235683000E+01 RR=-1.503163611220420E-02
2460877.772222222 = A.D. 2025-Jul-21 06:32:00.0000 TDB 
 X = 2.939759884231128E+01 Y = 8.954892561433245E-01 Z =-6.886706390882322E-01
 VX=-1.488775681231558E-02 VY=-4.961207788906796E-03 VZ=-6.369807473310101E-05
 LT= 1.699116842112256E-01 RG= 2.941929614981418E+01 RR=-1.502629911530899E-02
2460877.813888889 = A.D. 2025-Jul-21 07:32:00.0000 TDB 
 X = 2.939697863664220E+01 Y = 8.952823191394367E-01 Z =-6.886732929161232E-01
 VX=-1.488211381956896E-02 VY=-4.971767700371836E-03 VZ=-6.368569509831293E-05
 LT= 1.699080688265642E-01 RG= 2.941867016536501E+01 RR=-1.502095290567734E-02
2460877.855555556 = A.D. 2025-Jul-21 08:32:00.0000 TDB 
 X = 2.939635866628356E+01 Y = 8.950749422262674E-01 Z =-6.886759462324178E-01
 VX=-1.487646190484328E-02 VY=-4.982323437649700E-03 VZ=-6.367352621865785E-05
 LT= 1.699044547295628E-01 RG= 2.941804440386725E+01 RR=-1.501559744124923E-02
2460877.897222222 = A.D. 2025-Jul-21 09:32:00.0000 TDB 
 X = 2.939573893160796E+01 Y = 8.948671255773548E-01 Z =-6.886785990469038E-01
 VX=-1.487080102653051E-02 VY=-4.992875018813569E-03 VZ=-6.366161616892449E-05
 LT= 1.699008419224534E-01 RG= 2.941741886570738E+01 RR=-1.501023267946650E-02
2460877.938888889 = A.D. 2025-Jul-21 10:32:00.0000 TDB 
 X = 2.939511943298973E+01 Y = 8.946588693655462E-01 Z =-6.886812513713357E-01
 VX=-1.486513114481760E-02 VY=-5.003422458889856E-03 VZ=-6.365001108193371E-05
 LT= 1.698972304074785E-01 RG= 2.941679355127366E+01 RR=-1.500485857951722E-02
2460877.980555556 = A.D. 2025-Jul-21 11:32:00.0000 TDB 
 X = 2.939450017080477E+01 Y = 8.944501737631387E-01 Z =-6.886839032193263E-01
 VX=-1.485945222424424E-02 VY=-5.013965769042883E-03 VZ=-6.363875376650982E-05
 LT= 1.698936201868899E-01 RG= 2.941616846095596E+01 RR=-1.499947510489939E-02
2460878.022222222 = A.D. 2025-Jul-21 12:32:00.0000 TDB 
 X = 2.939388114543032E+01 Y = 8.942410389420580E-01 Z =-6.886865546061784E-01
 VX=-1.485376423642368E-02 VY=-5.024504955917263E-03 VZ=-6.362788231903326E-05
 LT= 1.698900112629471E-01 RG= 2.941554359514553E+01 RR=-1.499408222615227E-02
2460878.063888889 = A.D. 2025-Jul-21 13:32:00.0000 TDB 
 X = 2.939326235724460E+01 Y = 8.940314650740536E-01 Z =-6.886892055486615E-01
 VX=-1.484806716272107E-02 VY=-5.035040021260620E-03 VZ=-6.361742885677884E-05
 LT= 1.698864036379159E-01 RG= 2.941491895423468E+01 RR=-1.498867992355126E-02
2460878.105555556 = A.D. 2025-Jul-21 14:32:00.0000 TDB 
 X = 2.939264380662637E+01 Y = 8.938214523309042E-01 Z =-6.886918560647413E-01
 VX=-1.484236099662595E-02 VY=-5.045570961977270E-03 VZ=-6.360741853491964E-05
 LT= 1.698827973140651E-01 RG= 2.941429453861623E+01 RR=-1.498326818950345E-02
2460878.147222222 = A.D. 2025-Jul-21 15:32:00.0000 TDB 
 X = 2.939202549395440E+01 Y = 8.936110008846083E-01 Z =-6.886945061732767E-01
 VX=-1.483664574549169E-02 VY=-5.056097770793913E-03 VZ=-6.359786904576810E-05
 LT= 1.698791922936642E-01 RG= 2.941367034868312E+01 RR=-1.497784703031797E-02
2460878.188888889 = A.D. 2025-Jul-21 16:32:00.0000 TDB 
 X = 2.939140741960680E+01 Y = 8.934001109075305E-01 Z =-6.886971558937103E-01
 VX=-1.483092143124650E-02 VY=-5.066620437751015E-03 VZ=-6.358879083832285E-05
 LT= 1.698755885789788E-01 RG= 2.941304638482766E+01 RR=-1.497241646695687E-02
2460878.230555556 = A.D. 2025-Jul-21 17:32:00.0000 TDB 
 X = 2.939078958396052E+01 Y = 8.931887825724630E-01 Z =-6.886998052457886E-01
 VX=-1.482518808960665E-02 VY=-5.077138952768768E-03 VZ=-6.358018833861196E-05
 LT= 1.698719861722681E-01 RG= 2.941242264744101E+01 RR=-1.496697653429835E-02
2460878.272222222 = A.D. 2025-Jul-21 18:32:00.0000 TDB 
 X = 2.939017198739074E+01 Y = 8.929770160525570E-01 Z =-6.887024542493584E-01
 VX=-1.481944576724422E-02 VY=-5.087653309573723E-03 VZ=-6.357206249673811E-05
 LT= 1.698683850757817E-01 RG= 2.941179913691263E+01 RR=-1.496152727836625E-02
2460878.313888889 = A.D. 2025-Jul-21 19:32:00.0000 TDB 
 X = 2.938955463027058E+01 Y = 8.927648115210490E-01 Z =-6.887051029243042E-01
 VX=-1.481369451627752E-02 VY=-5.098163511312157E-03 VZ=-6.356441503470397E-05
 LT= 1.698647852917567E-01 RG= 2.941117585362992E+01 RR=-1.495606875089525E-02
2460878.355555556 = A.D. 2025-Jul-21 20:32:00.0000 TDB 
 X = 2.938893751297104E+01 Y = 8.925521691507216E-01 Z =-6.887077512907046E-01
 VX=-1.480793438536360E-02 VY=-5.108669578218154E-03 VZ=-6.355725482031135E-05
 LT= 1.698611868224183E-01 RG= 2.941055279797814E+01 RR=-1.495060100051303E-02
2460878.397222222 = A.D. 2025-Jul-21 21:32:00.0000 TDB 
 X = 2.938832063586134E+01 Y = 8.923390891129852E-01 Z =-6.887103993693076E-01
 VX=-1.480216540657802E-02 VY=-5.119171557748974E-03 VZ=-6.355060684645323E-05
 LT= 1.698575896699818E-01 RG= 2.940992997034084E+01 RR=-1.494512405972619E-02
2460878.438888889 = A.D. 2025-Jul-21 22:32:00.0000 TDB 
 X = 2.938770399931005E+01 Y = 8.921255715764854E-01 Z =-6.887130471824423E-01
 VX=-1.479638757716824E-02 VY=-5.129669537646973E-03 VZ=-6.354452435209615E-05
 LT= 1.698539938366578E-01 RG= 2.940930737110081E+01 RR=-1.493963792679816E-02
2460878.480555556 = A.D. 2025-Jul-21 23:32:00.0000 TDB 
 X = 2.938708760368700E+01 Y = 8.919116167050933E-01 Z =-6.887156947555132E-01
 VX=-1.479060083516240E-02 VY=-5.140163662436521E-03 VZ=-6.353910468115722E-05
 LT= 1.698503993246645E-01 RG= 2.940868500064207E+01 RR=-1.493414254150304E-02
2460878.522222222 = A.D. 2025-Jul-22 00:32:00.0000 TDB 
 X = 2.938647144936301E+01 Y = 8.916972246563399E-01 Z =-6.887183421174399E-01
 VX=-1.478480531306848E-02 VY=-5.150654012471057E-03 VZ=-6.353434043379492E-05
 LT= 1.698468061362249E-01 RG= 2.940806285934958E+01 RR=-1.492863803845466E-02
